GORIZONT 1 [-]          
1 11158U 78118A   22217.41830965 -.00000043  00000+0  00000+0 0  9997
2 11158  11.0894 203.5109 3472046 283.8323  40.2934  1.00303636108784
GORIZONT 2 [-]          
1 11440U 79062A   22218.81425553  .00000060  00000+0  00000+0 0  9996
2 11440   9.1707 301.2583 0002648 233.5527 133.3517  1.00272535123885
GORIZONT 3 [-]          
1 11648U 79105A   22218.81294752  .00000099  00000+0  00000+0 0  9991
2 11648   9.3300 302.6893 0014136 210.5088 147.5397  1.00329239108337
GORIZONT 4 [-]          
1 11841U 80049A   22218.92063111 -.00000048  00000+0  00000+0 0  9995
2 11841  10.4789 308.4453 0001167 168.9138 198.3951  0.98629849219647
GORIZONT 5 [-]          
1 13092U 82020A   22218.71387035 -.00000004  00000+0  00000+0 0  9999
2 13092  11.4690 313.7264 0034488 210.8675 139.5877  0.98530406107698
GORIZONT 6 [-]          
1 13624U 82103A   22218.54972959  .00000101  00000+0  00000+0 0  9995
2 13624  10.3893 313.7605 0003175 173.1080 214.1434  1.00272482106791
GORIZONT 7 [-]          
1 14160U 83066A   22218.88660597  .00000007  00000+0  00000+0 0  9994
2 14160  12.0444 323.0688 0008300 314.3673  56.7449  0.98346698140921
GORIZONT 8 [-]          
1 14532U 83118A   22219.22211951 -.00000132  00000+0  00000+0 0  9990
2 14532  12.2159 324.9121 0030923 149.1483 228.3632  0.98270413106687
GORIZONT 9 [-]          
1 14940U 84041A   22218.84062001 -.00000206  00000+0  00000+0 0  9998
2 14940  11.4094 322.9618 0004841 200.6461 183.2564  1.00233743107804
GORIZONT 10 [-]         
1 15144U 84078A   22218.52675580  .00000125  00000+0  00000+0 0  9991
2 15144  11.5034 323.9908 0001579 135.1839 257.2858  1.00199019140436
GORIZONT 11 [-]         
1 15484U 85007A   22218.81756914 -.00000137  00000+0  00000+0 0  9998
2 15484  11.6828 325.9602 0005162 148.8876 211.1798  1.00395099138482
GORIZONT 12 [-]         
1 16769U 86044A   22218.95188226 -.00000069  00000+0  00000+0 0  9991
2 16769  12.2951 331.3167 0001977 174.1930 226.1602  1.00196808133137
GORIZONT 13 [-]         
1 17083U 86090A   22218.44376525 -.00000087  00000+0  00000+0 0  9997
2 17083  14.1653 338.4701 0012036 343.7457  13.0184  0.96726167104996
GORIZONT 14 [-]         
1 17969U 87040A   22219.41867102 -.00000063  00000+0  00000+0 0  9994
2 17969  13.1190 329.8860 0032624 172.0503 193.7445  0.97658424106083
GORIZONT 15 [-]         
1 19017U 88028A   22219.08783112 -.00000178  00000+0  00000+0 0  9995
2 19017  14.4490 341.3015 0038693 153.9150 204.7492  0.97829259105692
GORIZONT 16 [-]         
1 19397U 88071A   22219.23938389 -.00000290  00000+0  00000+0 0  9994
2 19397  13.3004 339.9874 0014847  68.0514 297.3142  0.99977073124133
GORIZONT 17 [-]         
1 19765U 89004A   22218.46042715  .00000049  00000+0  00000+0 0  9994
2 19765  13.8434 343.3321 0024753 131.4134 246.2932  0.99064301121600
GORIZONT 18 [-]         
1 20107U 89052A   22218.46053109  .00000059  00000+0  00000+0 0  9999
2 20107  13.8851 344.5937 0032658 318.5210  56.8567  0.99398224120395
GORIZONT 19 [-]         
1 20263U 89081A   22217.95094297  .00000096  00000+0  00000+0 0  9991
2 20263  13.6161 343.7913 0003800 183.2399 177.6471  1.00330679 33197
GORIZONT 20 [-]         
1 20659U 90054A   22217.87618760 -.00000295  00000+0  00000+0 0  9992
2 20659  14.0489 346.6207 0007266 160.1565 219.7881  1.00281106117546
GORIZONT 21 [-]         
1 20923U 90094A   22218.34146687 -.00000165  00000+0  00000+0 0  9993
2 20923  14.0605 347.3872 0005029 187.3081 164.5929  1.00388065116298
GORIZONT 22 [-]         
1 20953U 90102A   22218.28375976 -.00000291  00000+0  00000+0 0  9994
2 20953  14.0187 347.7548 0002857  42.2239 166.9467  1.00286908116229
GORIZONT 23 [-]         
1 21533U 91046A   22218.99215966  .00000037  00000+0  00000+0 0  9994
2 21533  14.7728 351.8869 0002021 332.1883  59.6447  0.98906119106788
GORIZONT 24 [-]         
1 21759U 91074A   22218.61450994 -.00000170  00000+0  00000+0 0  9995
2 21759  14.9250 353.7881 0017222 220.1590 150.0777  0.98445071111070
GORIZONT 25 [-]         
1 21922U 92017A   22217.95068139  .00000115  00000+0  00000+0 0  9995
2 21922  14.4683 353.1318 0030103  82.8149 267.5577  0.99846111110849
GORIZONT 26 [-]         
1 22041U 92043A   22219.29402000 -.00000240  00000+0  00000+0 0  9995
2 22041  14.6349 355.1166 0029819 231.2699 142.1580  0.99244118109500
GORIZONT 27 [-]         
1 22245U 92082A   22219.39377721 -.00000198  00000+0  00000+0 0  9998
2 22245  14.5521 354.7180 0011681  17.6360 172.8127  1.00141245113026
GORIZONT 28 [-]         
1 22880U 93069A   22218.39424437 -.00000120  00000+0  00000+0 0  9990
2 22880  14.6873 358.5813 0035906 130.6433 238.3645  0.99648852105072
GORIZONT 29 [-]         
1 22907U 93072A   22219.09114473  .00000013  00000+0  00000+0 0  9998
2 22907  14.5997 358.0429 0008947 355.1312   4.1262  1.00155843105082
GORIZONT 30 [-]         
1 23108U 94030A   22218.75914493 -.00000271  00000+0  00000+0 0  9996
2 23108  14.6115 358.9542 0003000 135.4262 237.4868  1.00289469103322
GORIZONT 31 [-]         
1 23775U 96005A   22219.35907146 -.00000169  00000+0  00000+0 0  9990
2 23775  14.5122   5.1480 0018354 196.9176 156.0582  0.99884726 96969
GORIZONT 32 [-]         
1 23880U 96034A   22218.59327924  .00000075  00000+0  00000+0 0  9999
2 23880  14.4598   5.6744 0008209   1.9433  24.0531  1.00156695 95900
GORIZONT 33 [-]         
1 26372U 00029A   22218.79515867 -.00000260  00000+0  00000+0 0  9991
2 26372  13.1558  16.8310 0004834  96.2337  92.4050  1.00322945 81288
